0 FENGYUN 1C DEB
1 30804U 99025AUN 13282.28870450  .00002116  00000-0  49564-3 0  2679
2 30804 098.8809 046.2235 0219401 178.8618 212.8785 14.42059397348841
0 FENGYUN 1C DEB
1 30804U 99025AUN 13284.17983918  .00002706  00000-0  62994-3 0  2681
2 30804 098.8802 048.1919 0219400 173.2200 310.5640 14.42063875349112
0 FENGYUN 1C DEB
1 30804U 99025AUN 13285.55568407  .00002198  00000-0  51399-3 0  2699
2 30804 098.8804 049.6242 0219480 169.1522 253.1603 14.42071046349310
0 FENGYUN 1C DEB
1 30804U 99025AUN 13286.59595086  .00002246  00000-0  52465-3 0  2708
2 30804 098.8808 050.7073 0219498 166.0679 253.6583 14.42075050349464
0 FENGYUN 1C DEB
1 30804U 99025AUN 13288.20343932  .00003590  00000-0  83040-3 0  2716
2 30804 098.8814 052.3809 0219527 161.2941 318.9042 14.42084938349693
0 FENGYUN 1C DEB
1 30804U 99025AUN 13289.57922575  .00003102  00000-0  71919-3 0  2725
2 30804 098.8820 053.8134 0219532 157.2183 261.3098 14.42092778349891
0 FENGYUN 1C DEB
1 30804U 99025AUN 13291.18735191  .00002782  00000-0  64611-3 0  2736
2 30804 098.8824 055.4881 0219523 152.4583 329.9573 14.42102964350129
0 FENGYUN 1C DEB
1 30804U 99025AUN 13292.56324251  .00002840  00000-0  65929-3 0  2749
2 30804 098.8826 056.9208 0219553 148.3723 273.0013 14.42109014350326
0 FENGYUN 1C DEB
1 30804U 99025AUN 13293.82952201  .00002893  00000-0  67111-3 0  2755
2 30804 098.8826 058.2395 0219593 144.6144 007.0171 14.42115803350501
0 FENGYUN 1C DEB
1 30804U 99025AUN 13294.86545523  .00003024  00000-0  70065-3 0  2765
2 30804 098.8825 059.3183 0219610 141.5406 345.1899 14.42122081350659
